IRIDIUM 159             
1 43578U 18061K   25007.50046195  .00000028  00000+0  28366-5 0  9996
2 43578  86.3961 276.3648 0002276  80.2076 279.9377 14.34201720338033
IRIDIUM 180             
1 43922U 19002A   25007.49994557  .00000214  00000+0  69441-4 0  9992
2 43922  86.3970 213.2477 0001894  87.2693 272.8720 14.34214821313643
IRIDIUM 168             
1 43924U 19002C   25007.49360038  .00000228  00000+0  74442-4 0  9997
2 43924  86.3972 213.3128 0002073  84.6017 275.5415 14.34216608313626
IRIDIUM 169             
1 43926U 19002E   25007.61929833  .00000624  00000+0  19755-3 0  9992
2 43926  86.4216 244.7792 0000342  97.8826 262.2411 14.38600884314667
IRIDIUM 172             
1 43927U 19002F   25007.54433587  .00000137  00000+0  41823-4 0  9992
2 43927  86.3963 213.2077 0002159  80.7790 279.3650 14.34217291313623
IRIDIUM 175             
1 43928U 19002G   25007.21946627  .00002457  00000+0  38536-3 0  9994
2 43928  86.1527 175.0442 0001950 134.3854 225.7522 14.72280351321850
